[{"OBJECT_NAME":"STARLINK-36193","OBJECT_ID":"2025-298AA","EPOCH":"2026-03-09T22:00:01.999584","MEAN_MOTION":14.99161072,"ECCENTRICITY":0.00026795,"INCLINATION":70.0009,"RA_OF_ASC_NODE":13.8189,"ARG_OF_PERICENTER":268.8131,"MEAN_ANOMALY":76.3461,"EPHEMERIS_TYPE":0,"CLASSIFICATION_TYPE":"U","NORAD_CAT_ID":67099,"ELEMENT_SET_NO":999,"REV_AT_EPOCH":590,"BSTAR":-0.001795619,"MEAN_MOTION_DOT":-0.00021917,"MEAN_MOTION_DDOT":0},{"OBJECT_NAME":"UNKNOWN","OBJECT_ID":"","EPOCH":"2026-03-07T10:45:42.474528","MEAN_MOTION":13.32766957,"ECCENTRICITY":0.0768452,"INCLINATION":65.6676,"RA_OF_ASC_NODE":228.8005,"ARG_OF_PERICENTER":336.6253,"MEAN_ANOMALY":20.1508,"EPHEMERIS_TYPE":0,"CLASSIFICATION_TYPE":"U","NORAD_CAT_ID":81864,"ELEMENT_SET_NO":999,"REV_AT_EPOCH":56212,"BSTAR":0.0004593,"MEAN_MOTION_DOT":1.157e-5,"MEAN_MOTION_DDOT":0}]
